STARLINK-3720           
1 52136U 22029BA  26068.26666077 -.00002854  00000+0 -16137-3 0  9995
2 52136  53.2169  71.0195 0001456  74.6079 285.5074 15.08818219220870
PRSC-S1                 
1 65055U 25164A   26068.60758212  .00007316  00000+0  46631-3 0  9991
2 65055  41.1290 129.3637 0004466 348.3012  11.7698 15.08919510 33403
